ONEWEB-0597             
1 54663U 22166X   26160.71802488  .00000049  00000+0  85968-4 0  9996
2 54663  87.9253 245.4737 0002044  95.9667 264.1700 13.21826425170556
ONEWEB-0600             
1 54664U 22166Y   26160.69949739 -.00000281  00000+0 -71222-3 0  9992
2 54664  87.9251 245.4685 0001835  95.6350 264.4994 13.21825521170521
ONEWEB-0601             
1 54665U 22166Z   26160.69109948 -.00000041  00000+0 -13127-3 0  9997
2 54665  87.9253 245.4863 0002158  93.3850 266.7531 13.21825103170710
ONEWEB-0602             
1 54666U 22166AA  26160.65661964  .00000002  00000+0 -25567-4 0  9993
2 54666  87.9253 245.4994 0001817  93.4870 266.6472 13.21825614170552
ONEWEB-0603             
1 54667U 22166AB  26160.73821376 -.00000068  00000+0 -19500-3 0  9990
2 54667  87.9264 245.4393 0002029  96.3708 263.7657 13.21825782170498
ONEWEB-0604             
1 54668U 22166AC  26160.72642988  .00000035  00000+0  53432-4 0  9995
2 54668  87.9265 245.4574 0001978 101.3849 258.7507 13.21827305170453
ONEWEB-0605             
1 54669U 22166AD  26160.71971213  .00000114  00000+0  24521-3 0  9995
2 54669  87.9256 245.4728 0002622  94.1997 265.9437 13.21825977170528
ONEWEB-0606             
1 54670U 22166AE  26160.66587928 -.00000013  00000+0 -62618-4 0  9997
2 54670  87.9255 245.4959 0001955 104.4278 255.7073 13.21826307170576
ONEWEB-0607             
1 54671U 22166AF  26160.70790922  .00000023  00000+0  23881-4 0  9991
2 54671  87.9260 245.4580 0001993  94.7768 265.3594 13.21823925170556
ONEWEB-0608             
1 54672U 22166AG  26160.71465279 -.00000006  00000+0 -46022-4 0  9992
2 54672  87.9268 245.4532 0002397  89.2504 270.8905 13.21827328170567
ONEWEB-0610             
1 54673U 22166AH  26160.69445198 -.00000326  00000+0 -82073-3 0  9998
2 54673  87.9254 245.4720 0002253  83.4215 276.7176 13.21825254170468
ONEWEB-0611             
1 54674U 22166AJ  26160.53633438 -.00000031  00000+0 -10721-3 0  9992
2 54674  87.9254 245.4994 0002002 102.8516 257.2842 13.21827579170437
ONEWEB-0612             
1 54675U 22166AK  26160.70119343 -.00000021  00000+0 -82410-4 0  9990
2 54675  87.9264 245.4612 0002097  95.7432 264.3941 13.21825099170442
ONEWEB-0615             
1 54676U 22166AL  26160.68101883 -.00000035  00000+0 -11734-3 0  9993
2 54676  87.9258 245.4806 0001795 104.3012 255.8322 13.21826306170457
ONEWEB-0655             
1 54677U 22166AM  26160.65746886  .00000046  00000+0  80598-4 0  9994
2 54677  87.9256 245.4868 0001861  93.0038 267.1310 13.21826120170446
ONEWEB-0659             
1 54678U 22166AN  26160.67429022  .00001237  00000+0  29624-2 0  9991
2 54678  87.9251 245.4833 0002005 102.4474 257.6884 13.21821129170538
ONEWEB-0685             
1 54679U 22166AP  26160.67449209 -.00000040  00000+0 -12877-3 0  9997
2 54679  87.9254 245.4756 0002086  89.6803 270.4570 13.21847552170428
ONEWEB-0712             
1 54680U 22166AQ  26160.68831364 -.00000060  00000+0 -19178-3 0  9990
2 54680  87.9100 230.2636 0001663  88.8764 271.2557 13.16594008171071
ONEWEB-0714             
1 54681U 22166AR  26160.67930911 -.00000165  00000+0 -43075-3 0  9997
2 54681  87.9253 245.4718 0001721  96.6711 263.4619 13.21824909170549
ONEWEB-0532             
1 55140U 23004A   26160.81940628 -.00000009  00000+0 -55175-4 0  9994
2 55140  87.9139   7.3309 0002192  89.7927 270.3456 13.17648804166611
ONEWEB-0533             
1 55141U 23004B   26160.75746062  .00000383  00000+0  10286-2 0  9999
2 55141  87.8947 352.1485 0001869  83.0200 277.1141 13.12442586167087
ONEWEB-0541             
1 55142U 23004C   26160.55262069 -.00000208  00000+0 -62155-3 0  9999
2 55142  87.8902  22.5771 0001816  90.0405 270.0931 13.11416448164940
ONEWEB-0543             
1 55143U 23004D   26160.72796982  .00000017  00000+0  92879-5 0  9999
2 55143  87.9157 336.9545 0001632  87.7766 272.3553 13.18685504168716
ONEWEB-0544             
1 55144U 23004E   26160.72122855 -.00000554  00000+0 -14386-2 0  9994
2 55144  87.9160 336.9555 0001635  95.7038 264.4281 13.18688473168714
ONEWEB-0560             
1 55145U 23004F   26160.71448880  .00000025  00000+0  31169-4 0  9994
2 55145  87.9159 336.9462 0001568  94.6838 265.4473 13.18686724168723
ONEWEB-0565             
1 55146U 23004G   26160.78361544  .00000055  00000+0  10591-3 0  9991
2 55146  87.9150 336.9611 0001891 103.6512 256.4830 13.18685225168722
ONEWEB-0567             
1 55147U 23004H   26160.47336979  .00000083  00000+0  17782-3 0  9992
2 55147  87.9159 337.0065 0001742 102.6577 257.4750 13.18685727168686
ONEWEB-0569             
1 55148U 23004J   26160.69506972 -.00000156  00000+0 -46341-3 0  9995
2 55148  87.8958 321.7110 0001263 122.9056 237.2194 13.13469292169196
ONEWEB-0570             
1 55149U 23004K   26160.76843225  .00000028  00000+0  37379-4 0  9997
2 55149  87.9157 336.9455 0002204  96.5594 263.5789 13.18684583168714
ONEWEB-0571             
1 55150U 23004L   26160.76170472  .00000935  00000+0  23387-2 0  9995
2 55150  87.9155 336.9463 0001930 130.2732 229.8569 13.18682895168724
