OBJECT_NAME,OBJECT_ID,EPOCH,MEAN_MOTION,ECCENTRICITY,INCLINATION,RA_OF_ASC_NODE,ARG_OF_PERICENTER,MEAN_ANOMALY,EPHEMERIS_TYPE,CLASSIFICATION_TYPE,NORAD_CAT_ID,ELEMENT_SET_NO,REV_AT_EPOCH,BSTAR,MEAN_MOTION_DOT,MEAN_MOTION_DDOT
ONEWEB-0597,2022-166X,2026-06-09T17:13:57.349632,13.21826425,.00020447,87.9253,245.4737,95.9667,264.1700,0,U,54663,999,17055,.85968262E-4,.49E-6,0
ONEWEB-0600,2022-166Y,2026-06-09T16:47:16.574496,13.21825521,.00018352,87.9251,245.4685,95.6350,264.4994,0,U,54664,999,17052,-.71222433E-3,-.281E-5,0
ONEWEB-0601,2022-166Z,2026-06-09T16:35:10.995072,13.21825103,.00021587,87.9253,245.4863,93.3850,266.7531,0,U,54665,999,17071,-.13126587E-3,-.41E-6,0
ONEWEB-0602,2022-166AA,2026-06-09T15:45:31.936896,13.21825614,.00018172,87.9253,245.4994,93.4870,266.6472,0,U,54666,999,17055,-.25566768E-4,.2E-7,0
ONEWEB-0603,2022-166AB,2026-06-09T17:43:01.668864,13.21825782,.00020293,87.9264,245.4393,96.3708,263.7657,0,U,54667,999,17049,-.19499589E-3,-.68E-6,0
ONEWEB-0604,2022-166AC,2026-06-09T17:26:03.541632,13.21827305,.00019784,87.9265,245.4574,101.3849,258.7507,0,U,54668,999,17045,.5343248E-4,.35E-6,0
ONEWEB-0605,2022-166AD,2026-06-09T17:16:23.128032,13.21825977,.00026222,87.9256,245.4728,94.1997,265.9437,0,U,54669,999,17052,.24520926E-3,.114E-5,0
ONEWEB-0606,2022-166AE,2026-06-09T15:58:51.969792,13.21826307,.00019556,87.9255,245.4959,104.4278,255.7073,0,U,54670,999,17057,-.62618126E-4,-.13E-6,0
ONEWEB-0607,2022-166AF,2026-06-09T16:59:23.356608,13.21823925,.00019933,87.9260,245.4580,94.7768,265.3594,0,U,54671,999,17055,.23880872E-4,.23E-6,0
ONEWEB-0608,2022-166AG,2026-06-09T17:09:06.001056,13.21827328,.00023979,87.9268,245.4532,89.2504,270.8905,0,U,54672,999,17056,-.46022049E-4,-.6E-7,0
ONEWEB-0610,2022-166AH,2026-06-09T16:40:00.651072,13.21825254,.00022531,87.9254,245.4720,83.4215,276.7176,0,U,54673,999,17046,-.82073169E-3,-.326E-5,0
ONEWEB-0611,2022-166AJ,2026-06-09T12:52:19.290432,13.21827579,.00020021,87.9254,245.4994,102.8516,257.2842,0,U,54674,999,17043,-.10720511E-3,-.31E-6,0
ONEWEB-0612,2022-166AK,2026-06-09T16:49:43.112352,13.21825099,.00020973,87.9264,245.4612,95.7432,264.3941,0,U,54675,999,17044,-.82410241E-4,-.21E-6,0
ONEWEB-0615,2022-166AL,2026-06-09T16:20:40.026912,13.21826306,.00017952,87.9258,245.4806,104.3012,255.8322,0,U,54676,999,17045,-.11734387E-3,-.35E-6,0
ONEWEB-0655,2022-166AM,2026-06-09T15:46:45.309504,13.21826120,.00018619,87.9256,245.4868,93.0038,267.1310,0,U,54677,999,17044,.80598086E-4,.46E-6,0
ONEWEB-0659,2022-166AN,2026-06-09T16:10:58.675008,13.21821129,.00020053,87.9251,245.4833,102.4474,257.6884,0,U,54678,999,17053,.29624319E-2,.1237E-4,0
ONEWEB-0685,2022-166AP,2026-06-09T16:11:16.116576,13.21847552,.0002086,87.9254,245.4756,89.6803,270.4570,0,U,54679,999,17042,-.12877146E-3,-.4E-6,0
ONEWEB-0712,2022-166AQ,2026-06-09T16:31:10.298496,13.16594008,.00016631,87.9100,230.2636,88.8764,271.2557,0,U,54680,999,17107,-.19178268E-3,-.6E-6,0
ONEWEB-0714,2022-166AR,2026-06-09T16:18:12.307104,13.21824909,.00017219,87.9253,245.4718,96.6711,263.4619,0,U,54681,999,17054,-.43075002E-3,-.165E-5,0
ONEWEB-0532,2023-004A,2026-06-09T19:39:56.702592,13.17648804,.0002192,87.9139,7.3309,89.7927,270.3456,0,U,55140,999,16661,-.55175391E-4,-.9E-7,0
ONEWEB-0533,2023-004B,2026-06-09T18:10:44.597568,13.12442586,.00018691,87.8947,352.1485,83.0200,277.1141,0,U,55141,999,16708,.10285691E-2,.383E-5,0
ONEWEB-0541,2023-004C,2026-06-09T13:15:46.427616,13.11416448,.00018165,87.8902,22.5771,90.0405,270.0931,0,U,55142,999,16494,-.62154919E-3,-.208E-5,0
ONEWEB-0543,2023-004D,2026-06-09T17:28:16.592448,13.18685504,.00016322,87.9157,336.9545,87.7766,272.3553,0,U,55143,999,16871,.9287859E-5,.17E-6,0
ONEWEB-0544,2023-004E,2026-06-09T17:18:34.146720,13.18688473,.00016352,87.9160,336.9555,95.7038,264.4281,0,U,55144,999,16871,-.143859E-2,-.554E-5,0
ONEWEB-0560,2023-004F,2026-06-09T17:08:51.832320,13.18686724,.00015681,87.9159,336.9462,94.6838,265.4473,0,U,55145,999,16872,.31168601E-4,.25E-6,0
ONEWEB-0565,2023-004G,2026-06-09T18:48:24.374016,13.18685225,.00018917,87.9150,336.9611,103.6512,256.4830,0,U,55146,999,16872,.10591027E-3,.55E-6,0
ONEWEB-0567,2023-004H,2026-06-09T11:21:39.149856,13.18685727,.0001742,87.9159,337.0065,102.6577,257.4750,0,U,55147,999,16868,.17782439E-3,.83E-6,0
ONEWEB-0569,2023-004J,2026-06-09T16:40:54.023808,13.13469292,.0001263,87.8958,321.7110,122.9056,237.2194,0,U,55148,999,16919,-.46341406E-3,-.156E-5,0
ONEWEB-0570,2023-004K,2026-06-09T18:26:32.546400,13.18684583,.00022049,87.9157,336.9455,96.5594,263.5789,0,U,55149,999,16871,.37378888E-4,.28E-6,0
ONEWEB-0571,2023-004L,2026-06-09T18:16:51.287808,13.18682895,.00019307,87.9155,336.9463,130.2732,229.8569,0,U,55150,999,16872,.23387222E-2,.935E-5,0
